#aV2024  6 17  0  0  0.00000000     288 DD+AD WGS84 FIT  NGA
## 2319  86400.00000000   300.00000000 60478 0.0000000000000
+   31     2  3  4  5  6  7  8  9 10 11 12 13 14 15 16 17 18
+         19 20 21 22 23 24 25 26 27 28 29 30 31 32  0  0  0
+          0  0  0  0  0  0  0  0  0  0  0  0  0  0  0  0  0
+          0  0  0  0  0  0  0  0  0  0  0  0  0  0  0  0  0
+          0  0  0  0  0  0  0  0  0  0  0  0  0  0  0  0  0
++         2  2  2  2  2  2  2  2  2  2  2  2  2  2  2  2  2
++         2  2  2  2  2  2  2  2  2  2  2  2  2  2  0  0  0
++         0  0  0  0  0  0  0  0  0  0  0  0  0  0  0  0  0
++         0  0  0  0  0  0  0  0  0  0  0  0  0  0  0  0  0
++         0  0  0  0  0  0  0  0  0  0  0  0  0  0  0  0  0
%c cc cc ccc ccc cccc cccc cccc cccc ccccc ccccc ccccc ccccc
%c cc cc ccc ccc cccc cccc cccc cccc ccccc ccccc ccccc ccccc
%f  0.0000000  0.000000000  0.00000000000  0.000000000000000
%f  0.0000000  0.000000000  0.00000000000  0.000000000000000
%i    0    0    0    0      0      0      0      0         0
%i    0    0    0    0      0      0      0      0         0
/*      NGA, ST. LOUIS,MO.                                  
/*   EPHEMERIS COMPUTED FROM 2 DAYS OF DATA                 
/*   EPOCHA v9 SMOOTHER                                     
/*   G2296 IERS2010 SATIGS SATAPC                           
*  2024  6 17 15 55  0.00000000
P  2  22588.942640  14078.703939  -1892.928043   -415.968066                    
V  2  -3747.278021    648.368405 -31581.690771      0.070916                    
P  3  12458.191386  11987.960919  20040.552479    417.870608                    
V  3  -2693.210572  25570.100258 -13396.613613      0.178613                    
P  4  19622.847725   4450.065390  17424.118927    385.179048                    
V  4 -19484.705329  10389.530693  19175.425980      0.080668                    
P  5  -6041.242447 -24043.291991  -9593.772691   -176.648037                    
V  5   2495.935192 -11885.286470  28840.280480     -0.013360                    
P  6   7944.071762 -12269.157742  22234.359327    213.271646                    
V  6  23048.900045  15910.556314    651.281162     -0.213532                    
P  7  22217.615692   2796.194099 -14109.263167    -90.569491                    
V  7  14225.687074  12270.302875  23497.628656      0.099874                    
P  8  10681.349746  11625.388087 -21509.819105    234.154775                    
V  8 -23745.382887  12929.619476  -4406.568568      0.179717                    
P  9  24503.908724  -6438.327432   7978.272906    238.363948                    
V  9  -7847.787354   7084.794321  29461.479973      0.146369                    
P 10 -10510.751952  19857.327190 -13695.482490    -44.956316                    
V 10   -639.376839 -17914.876855 -25418.698065     -0.083743                    
P 11  -5616.477298 -19238.471517  17480.934901   -687.405960                    
V 11  18672.885236  11954.628142  19124.852101     -0.079653                    
P 12 -11114.497070 -14860.693095  18740.116304   -514.883059                    
V 12   4759.933285 -23937.429423 -15873.527176     -0.032068                    
P 13   -933.109363 -15371.134690 -21826.199366    658.571099                    
V 13  26020.753700  -7967.125295   4772.748611      0.026313                    
P 14  13182.588350 -16351.951203 -16091.822662    427.664923                    
V 14    404.482886  20756.908391 -20924.579665      0.090960                    
P 15 -12092.903225 -10894.897029 -21510.149853    171.183572                    
V 15  21317.084264 -15286.970992  -4153.290073      0.041847                    
P 16   1133.083969  25376.483602  -7244.288933   -261.692256                    
V 16  -4270.318364   8312.016299  30250.813803      0.105409                    
P 17  22130.005997 -13727.426916   6062.663018    693.140336                    
V 17   7445.439622   -637.635285 -30593.114111     -0.057572                    
P 18 -21486.612144  -2123.143363 -15590.271584   -626.101266                    
V 18 -15248.057116 -12582.980687  22513.227116     -0.048234                    
P 19  16052.073340 -15807.029791  13567.572676    497.756919                    
V 19  17400.218278  -3848.844405 -25143.143975      0.053865                    
P 20  -2156.777199 -26538.473239   1012.898183    373.741669                    
V 20   3008.569452    889.689727  31478.288624     -0.003912                    
P 21  20138.035595  16553.031551  -6943.595151    114.846726                    
V 21  -8940.636958  -2719.276828 -29492.572026     -0.024923                    
P 22  10041.732420 -22872.918366  -9022.455964    -28.489843                    
V 22    499.786497  12191.328289 -28722.618471     -0.048913                    
P 23 -14255.439314   8376.895266 -20714.608569    252.571339                    
V 23    230.359027 -26365.928178 -11003.402280      0.091451                    
P 24 -21245.026296 -15659.594420  -4971.089235   -478.305682                    
V 24   6563.796306    -64.711725 -30038.543520     -0.024579                    
P 25 -15003.426836  -3904.176704  21251.879205    497.467197                    
V 25   1690.181831 -27741.349656  -3588.111678      0.005156                    
P 26  -4863.999654  24928.233519   6937.785678    135.417902                    
V 26  -3991.270704  -9090.671845  29597.493317     -0.063101                    
P 27  -1476.931869  16841.434365 -20671.319818    -28.529571                    
V 27 -23479.129071  10511.137248  10803.117559     -0.012924                    
P 28 -10195.631823  11474.544723  21665.476399   -292.970607                    
V 28 -23185.688083 -14852.282667  -3043.900923     -0.167135                    
P 29 -24346.490851   1963.670781  10526.728218   -593.793185                    
V 29  11654.399667  -6918.375081  27988.168444      0.017056                    
P 30  15535.179821  -7442.993537 -20127.729060   -372.727669                    
V 30  20891.311295  15388.738935  10089.881893      0.062152                    
P 31    562.620797  17470.083670  19668.433444   -227.341240                    
V 31 -21756.079330 -13545.413904  12902.030699      0.002172                    
P 32 -19893.436099  15841.664949   7512.153164   -615.922601                    
V 32  -9541.832728   1732.431503 -29960.341154      0.012375                    
EOF
